{"type":"Feature","properties":{"FID":2,"Shape_Leng":278.983242593,"Location":"Finish","Shape__Length":115.17554511522661},"geometry":{"type":"GeometryCollection","geometries":[{"type":"Polygon","coordinates":[[[-71.1396646,42.3641822],[-71.1394183,42.3642354],[-71.1393943,42.3641777],[-71.1396519,42.3641251],[-71.1396646,42.3641822]]]},{"type":"LineString","coordinates":[[-71.1364789478042,42.3673975158595],[-71.135829795563,42.3668022636207]]},{"type":"Polygon","coordinates":[[[-71.1387205,42.3644809],[-71.1385243,42.3645887],[-71.138469,42.3645404],[-71.1386702,42.3644363],[-71.1387205,42.3644809]]]},{"type":"Polygon","coordinates":[[[-71.1375475219848,42.36538457429392],[-71.1373861219848,42.36552707429392],[-71.1373265219848,42.36548047429392],[-71.1374738219848,42.36535087429392],[-71.1375475219848,42.36538457429392]]]},{"type":"LineString","coordinates":[[-71.1396915,42.3642325],[-71.13906,42.3644535],[-71.1384866,42.3647727],[-71.1377388,42.3655095],[-71.1373067,42.365927],[-71.1359978,42.3668011],[-71.134775,42.3673972],[-71.1337988,42.3677314],[-71.1329553,42.3681469],[-71.1320512,42.3687829],[-71.1316965,42.3691409],[-71.131504,42.3695308],[-71.1314153,42.3698456]]},{"type":"Polygon","coordinates":[[[-71.1361961,42.366561],[-71.136007,42.3666735],[-71.1359492,42.3666289],[-71.1361409,42.3665222],[-71.1361961,42.366561]]]},{"type":"LineString","coordinates":[[-71.13817,42.364988]]},{"type":"Polygon","coordinates":[[[-71.133844,42.3674788],[-71.1336086,42.3675855],[-71.1335605,42.3675223],[-71.1338065,42.3674235],[-71.133844,42.3674788]]]},{"type":"LineString","coordinates":[[-71.1382757,42.364869]]},{"type":"Polygon","coordinates":[[[-71.1327858,42.3680198],[-71.1325682,42.3681664],[-71.1325106,42.3681333],[-71.1327346,42.3679773],[-71.1327858,42.3680198]]]},{"type":"Polygon","coordinates":[[[-71.1315008,42.3690358],[-71.1313191,42.3692755],[-71.1312283,42.3692531],[-71.1314013,42.3690102],[-71.1315008,42.3690358]]]},{"type":"LineString","coordinates":[[-71.1386358,42.3645828],[-71.136408,42.3664685],[-71.1358929,42.3667904],[-71.1355642,42.3669214],[-71.1352224,42.3670525],[-71.1334396,42.3678384],[-71.1326999,42.3682506],[-71.1319997,42.3687598],[-71.1315432,42.3692169],[-71.1315432,42.3692169],[-71.1314153,42.3695692],[-71.131398,42.3698504]]},{"type":"LineString","coordinates":[[-71.1340087,42.3674716],[-71.1328073,42.3680397],[-71.1319723,42.3686832],[-71.1313776,42.3693135],[-71.131186,42.369542],[-71.1312293,42.369852]]},{"type":"LineString","coordinates":[[-71.1328589,42.3681035],[-71.1320067,42.3687108],[-71.1314703,42.3692541],[-71.1313579,42.3695257],[-71.131266,42.369844]]},{"type":"LineString","coordinates":[[-71.1314312,42.369871],[-71.1314853,42.3704352],[-71.1317416,42.3708511],[-71.1320179,42.3712032]]},{"type":"LineString","coordinates":[[-71.1312849,42.369895],[-71.1312687,42.3701991],[-71.1314095,42.3704953],[-71.1315683,42.3708751],[-71.1318066,42.3711352],[-71.1319474,42.3712432]]},{"type":"LineString","coordinates":[[-71.1320937,42.3713393],[-71.1322237,42.3714513],[-71.1326732,42.3719835],[-71.1327725,42.3722641],[-71.1326623,42.3728891],[-71.1317109,42.3734265],[-71.1310753,42.3735674],[-71.130411,42.3736386],[-71.1296761,42.3736512],[-71.1289097,42.3735172]]}]}}