{
  "type" : "FeatureCollection", 
  "features" : [
    {
      "type" : "Feature", 
      "id" : 11, 
      "geometry" : 
      {
        "type" : "LineString", 
        "coordinates" : 
        [
          [-71.0972010858159, 42.3539128288302], 
          [-71.0952704364887, 42.3544627182219], 
          [-71.0934604533621, 42.3549680165612], 
          [-71.0925353512145, 42.3532440387761], 
          [-71.0946067764282, 42.3528130369407], 
          [-71.0963564269037, 42.3524563436001], 
          [-71.097160863749, 42.3538682431365]
        ]
      }, 
      "properties" : {
        "OBJECTID" : 11, 
        "Name" : null, 
        "Shape__Length" : 1397.4455771626651
      }
    }, 
    {
      "type" : "Feature", 
      "id" : 19, 
      "geometry" : 
      {
        "type" : "LineString", 
        "coordinates" : 
        [
          [-71.0961473035971, 42.3544569069056], 
          [-71.0978118225298, 42.3537846586506], 
          [-71.0993795677535, 42.3529407623219], 
          [-71.1011408612934, 42.3527119070822], 
          [-71.1030376387445, 42.3525831754777]
        ]
      }, 
      "properties" : {
        "OBJECTID" : 19, 
        "Name" : "Odd Bow Numbers", 
        "Shape__Length" : 838.17946714414165
      }
    }, 
    {
      "type" : "Feature", 
      "id" : 20, 
      "geometry" : 
      {
        "type" : "LineString", 
        "coordinates" : 
        [
          [-71.0962440782044, 42.3548430887508], 
          [-71.0988569863117, 42.3540421160103], 
          [-71.1016053783302, 42.3531124032049], 
          [-71.1032118328579, 42.3530122789156]
        ]
      }, 
      "properties" : {
        "OBJECTID" : 20, 
        "Name" : "Even Bow Numbers", 
        "Shape__Length" : 830.84378679344923
      }
    }
  ]
}